ONEWEB-0126             
1 47272U 20100Q   23353.54710297 -.00000061  00000+0 -20357-3 0  9994
2 47272  87.8996 171.7846 0001714  93.3896 266.7428 13.12437338145253
ONEWEB-0127             
1 47273U 20100R   23354.04186910  .00000316  00000+0  84435-3 0  9998
2 47273  87.9000 171.7090 0001636  93.6140 266.5175 13.12441095145342
ONEWEB-0128             
1 47274U 20100S   23354.44527606 -.00000345  00000+0 -99336-3 0  9994
2 47274  87.9006 171.6218 0001547 105.2080 254.9220 13.12443776145412
ONEWEB-0129             
1 47275U 20100T   23354.04344596  .00000251  00000+0  66173-3 0  9993
2 47275  87.8948 171.6855 0003135  83.9928 276.1558 13.12443124145295
ONEWEB-0130             
1 47276U 20100U   23353.99580586 -.00000387  00000+0 -11114-2 0  9994
2 47276  87.8998 171.6996 0001616  98.2437 261.8874 13.12441522145251
ONEWEB-0131             
1 47277U 20100V   23353.53519660 -.00000366  00000+0 -10540-2 0  9999
2 47277  87.9012 171.7986 0001419  92.1736 267.9555 13.12444317145232
ONEWEB-0132             
1 47278U 20100W   23353.56378731  .00000437  00000+0  11785-2 0  9994
2 47278  87.9012 171.7947 0001276  93.1932 266.9343 13.12442098145137
ONEWEB-0133             
1 47279U 20100X   23353.57966426  .00000276  00000+0  73247-3 0  9993
2 47279  87.8993 171.8024 0001415  96.7480 263.3810 13.12441311145298
